WORLDVIEW-1 (WV-1)      
1 32060U 07041A   26188.77256414  .00004146  00000+0  17154-3 0  9999
2 32060  97.3892 308.2257 0000968 255.8740 104.2390 15.24502747 46019
WORLDVIEW-2 (WV-2)      
1 35946U 09055A   26188.76123235  .00000072  00000+0  38406-4 0  9993
2 35946  98.4759 261.9303 0004976 148.2131 211.9357 14.37905573878602
WORLDVIEW-3 (WV-3)      
1 40115U 14048A   26188.78551928  .00000707  00000+0  89075-4 0  9994
2 40115  97.8559 263.3336 0000708 166.5968 193.5266 14.85056448644964
